     2.100          NAVIGATION                              RINEX VERSION / TYPE
fic2rin                                 01/14/2015 00:16:16 PGM / RUN BY / DATE
                                                            END OF HEADER
32 15  1 13  6  0  0.0 -.248751137406D-03  .864019966684D-11  .000000000000D+00
     .810000000000D+02  .266250000000D+02  .485770234280D-08 -.265734852969D+00
     .135041773319D-05  .113750669407D-01  .100750476122D-04  .515359190178D+04
     .194400000000D+06  .201165676117D-06  .157793016489D+01 -.223517417908D-07
     .946787752573D+00  .177593750000D+03  .435760286022D-02 -.828248785601D-08
    -.332156692802D-10  .100000000000D+01  .182700000000D+04  .000000000000D+00
     .340000000000D+01  .000000000000D+00 -.325962901115D-08  .810000000000D+02
     .187206000000D+06  .400000000000D+01
19 15  1 13  5 59 44.0 -.496419612318D-03 -.147792889038D-11  .000000000000D+00
     .900000000000D+01 -.145625000000D+02  .463805033627D-08  .121863910846D+01
    -.501051545143D-06  .108246172313D-01  .647082924843D-05  .515368336868D+04
     .194384000000D+06 -.149011611938D-07 -.505183203914D+00  .139698386192D-06
     .968328840932D+00  .259250000000D+03  .516004796620D+00 -.825391523727D-08
     .660741808263D-10  .100000000000D+01  .182700000000D+04  .000000000000D+00
     .240000000000D+01  .000000000000D+00 -.149011611938D-07  .900000000000D+01
     .191436000000D+06  .400000000000D+01
18 15  1 13  5 59 44.0  .371921807528D-03  .272848410532D-11  .000000000000D+00
     .000000000000D+00  .182812500000D+02  .503806699857D-08 -.275326492326D+01
     .864267349243D-06  .155781838112D-01  .979937613010D-05  .515375538063D+04
     .194384000000D+06  .156462192535D-06  .147878563484D+01 -.104308128357D-06
     .924909401618D+00  .169000000000D+03 -.199551032760D+01 -.795783147562D-08
     .296440919383D-10  .100000000000D+01  .182700000000D+04  .000000000000D+00
     .240000000000D+01  .000000000000D+00 -.111758708954D-07  .000000000000D+00
     .192216000000D+06  .400000000000D+01
 3 15  1 13  5 59 44.0  .144782010466D-03  .251247911365D-10  .000000000000D+00
     .200000000000D+01  .996875000000D+01  .440268338944D-08  .221189624755D+01
     .560656189919D-06  .950734829530D-03  .105667859316D-04  .515377340317D+04
     .194384000000D+06  .000000000000D+00  .149431287618D+01 -.428408384323D-07
     .959048154468D+00  .176375000000D+03 -.301562064027D+01 -.792604443728D-08
    -.110718897601D-09  .100000000000D+01  .182700000000D+04  .000000000000D+00
     .240000000000D+01  .000000000000D+00  .558793544769D-08  .200000000000D+01
     .192576000000D+06  .400000000000D+01
 3 15  1 13  7 59 44.0  .144963152707D-03  .251247911365D-10  .000000000000D+00
     .300000000000D+01  .176250000000D+02  .448840124564D-08 -.302049300889D+01
     .802800059319D-06  .951326685026D-03  .104978680611D-04  .515377191544D+04
     .201584000000D+06  .130385160446D-07  .149425578872D+01 -.167638063431D-07
     .959047269403D+00  .174218750000D+03 -.301629633434D+01 -.793747348477D-08
    -.120004998690D-09  .100000000000D+01  .182700000000D+04  .000000000000D+00
     .240000000000D+01  .000000000000D+00  .558793544769D-08  .300000000000D+01
     .194406000000D+06  .400000000000D+01
18 15  1 13  7 59 44.0  .371940899640D-03  .272848410532D-11  .000000000000D+00
     .700000000000D+01  .201875000000D+02  .517700135717D-08 -.170316868132D+01
     .102631747723D-05  .155795110622D-01  .916980206966D-05  .515375294495D+04
     .201584000000D+06  .420957803726D-06  .147872903893D+01  .670552253723D-07
     .924908835468D+00  .182625000000D+03 -.199547050404D+01 -.812640992616D-08
    -.122147945095D-09  .100000000000D+01  .182700000000D+04  .000000000000D+00
     .240000000000D+01  .000000000000D+00 -.111758708954D-07  .700000000000D+01
     .194406000000D+06  .400000000000D+01
19 15  1 13  7 59 44.0 -.496430322528D-03 -.147792889038D-11  .000000000000D+00
     .100000000000D+02 -.110625000000D+02  .460769192886D-08  .226885943803D+01
    -.614672899246D-06  .108247192111D-01  .651367008686D-05  .515368244553D+04
     .201584000000D+06 -.236555933952D-06 -.505243189407D+00 -.782310962677D-07
     .968330641784D+00  .259687500000D+03  .515961230919D+00 -.804533512050D-08
     .245367363393D-09  .100000000000D+01  .182700000000D+04  .000000000000D+00
     .240000000000D+01  .000000000000D+00 -.149011611938D-07  .100000000000D+02
     .194406000000D+06  .400000000000D+01
 1 15  1 13  8  0  0.0 -.102347694337D-04  .341060513165D-12  .000000000000D+00
     .360000000000D+02 -.430000000000D+02  .472591113888D-08  .856945135936D+00
    -.210478901863D-05  .379237392917D-02  .729411840439D-05  .515366919899D+04
     .201600000000D+06  .260770320892D-07  .453773319217D+00  .651925802231D-07
     .961897204982D+00  .236625000000D+03  .429826779531D+00 -.816284001505D-08
    -.227152318949D-09  .100000000000D+01  .182700000000D+04  .000000000000D+00
     .240000000000D+01  .000000000000D+00  .558793544769D-08  .360000000000D+02
     .194406000000D+06  .400000000000D+01
 2 15  1 13  8  0  0.0  .541574321687D-03  .227373675443D-11  .000000000000D+00
     .980000000000D+02 -.421875000000D+02  .520628829138D-08  .151069348151D+01
    -.219605863094D-05  .141835737741D-01  .736676156521D-05  .515374729156D+04
     .201600000000D+06 -.281259417534D-06  .419131945751D+00  .856816768646D-07
     .940503531953D+00  .233000000000D+03 -.234171367563D+01 -.851821196058D-08
    -.226080845746D-09  .100000000000D+01  .182700000000D+04  .000000000000D+00
     .240000000000D+01  .000000000000D+00 -.204890966415D-07  .980000000000D+02
     .194406000000D+06  .400000000000D+01
 4 15  1 13  8  0  0.0 -.557489693165D-05 -.454747350886D-12  .000000000000D+00
     .119000000000D+03 -.411250000000D+02  .528093425782D-08  .701454316262D+00
    -.205077230930D-05  .109958448447D-01  .725686550140D-05  .515373609352D+04
     .201600000000D+06 -.121071934700D-06  .434574156432D+00  .912696123123D-07
     .939526213438D+00  .229125000000D+03  .105027803876D+01 -.856749972790D-08
    -.258225041824D-09  .100000000000D+01  .182700000000D+04  .000000000000D+00
     .240000000000D+01  .000000000000D+00 -.651925802231D-08  .119000000000D+03
     .194406000000D+06  .400000000000D+01
 5 15  1 13  8  0  0.0 -.293520279229D-03  .511590769747D-11  .000000000000D+00
     .100000000000D+03  .671875000000D+01  .477412743300D-08 -.244704682459D+01
     .348314642906D-06  .405389314983D-02  .973790884018D-05  .515375291634D+04
     .201600000000D+06 -.149011611938D-07  .148898717557D+01 -.186264514923D-08
     .946337802859D+00  .186000000000D+03  .420245567269D+00 -.804569227824D-08
    -.510735559900D-10  .100000000000D+01  .182700000000D+04  .000000000000D+00
     .240000000000D+01  .000000000000D+00 -.107102096081D-07  .100000000000D+03
     .194406000000D+06  .400000000000D+01
 6 15  1 13  8  0  0.0  .502448529005D-04  .103455022327D-10  .000000000000D+00
     .390000000000D+02 -.418437500000D+02  .463983612494D-08 -.260721558669D+01
    -.223703682423D-05  .468474463560D-03  .726990401745D-05  .515367387199D+04
     .201600000000D+06  .558793544769D-08  .445239035502D+00  .130385160446D-07
     .961806574282D+00  .240625000000D+03  .239152524040D+01 -.810605193531D-08
    -.174292974288D-09  .100000000000D+01  .182700000000D+04  .000000000000D+00
     .240000000000D+01  .000000000000D+00  .465661287308D-08  .390000000000D+02
     .194406000000D+06  .400000000000D+01
 7 15  1 13  8  0  0.0  .431079417467D-03  .341060513165D-11  .000000000000D+00
     .420000000000D+02 -.856250000000D+01  .442161274935D-08  .324960431632D+00
    -.396743416786D-06  .796503922902D-02  .573322176933D-05  .515373989296D+04
     .201600000000D+06  .856816768646D-07 -.266937687328D+01  .154599547386D-06
     .971798212599D+00  .275312500000D+03 -.275177241912D+01 -.823784313923D-08
    -.153577825704D-09  .100000000000D+01  .182700000000D+04  .000000000000D+00
     .240000000000D+01  .000000000000D+00 -.111758708954D-07  .420000000000D+02
     .194406000000D+06  .400000000000D+01
 8 15  1 13  8  0  0.0  .171298161149D-04  .113686837722D-12  .000000000000D+00
     .770000000000D+02 -.134375000000D+02  .384123143128D-08  .163509235026D+01
    -.720843672752D-06  .147766025038D-01  .663474202156D-05  .515220625687D+04
     .201600000000D+06 -.219792127609D-06 -.256491660511D+01  .253319740295D-06
     .995294627022D+00  .268218750000D+03 -.267465682990D+01 -.794140221985D-08
    -.276082928534D-09  .100000000000D+01  .182700000000D+04  .000000000000D+00
     .485000000000D+01  .630000000000D+02 -.465661287308D-08  .770000000000D+02
     .194406000000D+06  .400000000000D+01
 9 15  1 13  8  0  0.0 -.537512823939D-04 -.112549969344D-10  .000000000000D+00
     .420000000000D+02  .608750000000D+02  .461340645261D-08  .262906755099D+01
     .319071114063D-05  .270399614237D-03  .676326453686D-05  .515367282486D+04
     .201600000000D+06 -.298023223877D-07  .253885277384D+01 -.447034835815D-07
     .958556513052D+00  .248187500000D+03  .228385325115D+01 -.816819738106D-08
     .939324840936D-10  .100000000000D+01  .182700000000D+04  .000000000000D+00
     .240000000000D+01  .000000000000D+00  .465661287308D-09  .420000000000D+02
     .194406000000D+06  .400000000000D+01
10 15  1 13  8  0  0.0 -.158555340022D-03 -.170530256582D-11  .000000000000D+00
     .320000000000D+02  .968750000000D+01  .472948271622D-08 -.210908284477D+01
     .458210706711D-06  .145122018876D-01  .100228935480D-04  .515365559196D+04
     .201600000000D+06  .119209289551D-06  .150488347456D+01 -.141561031342D-06
     .941128503723D+00  .173218750000D+03  .915390906117D+00 -.790068623815D-08
     .117862052285D-10  .100000000000D+01  .182700000000D+04  .000000000000D+00
     .240000000000D+01  .000000000000D+00 -.325962901115D-08  .320000000000D+02
     .194406000000D+06  .400000000000D+01
